ONEWEB-0670             
1 55829U 23029AK  23249.91667824 -.00012944  00000+0 -28823-1 0  9993
2 55829  87.9497 131.6133 0001265  70.5386 176.4954 13.27598999  5447
ONEWEB-0671             
1 55830U 23029AL  23249.10412961  .00000056  00000+0  10820-3 0  9995
2 55830  87.9281 146.9804 0001877  87.4054 272.7294 13.19734561 25012
ONEWEB-0672             
1 55831U 23029AM  23249.91667824 -.01139385  00000+0 -45138+0 0  9992
2 55831  86.9644 120.3923 0003274 102.9787 112.6854 14.32149811  5771
ONEWEB-0673             
1 55832U 23029AN  23249.23201678  .00000038  00000+0  61830-4 0  9990
2 55832  87.9177 147.0163 0002036  86.9133 273.2233 13.19720009 25031
ONEWEB-0674             
1 55833U 23029AP  23249.91667824  .00049741  00000+0  10980+0 0  9994
2 55833  87.9548 131.6171 0000630 105.4003 146.3742 13.27628504  5234
ONEWEB-0675             
1 55834U 23029AQ  23249.09621605  .00000042  00000+0  71667-4 0  9996
2 55834  87.9198 147.0157 0002231  66.4616 293.6750 13.19729140 25030
ONEWEB-0720             
1 55835U 23029AR  23249.16409999  .00000119  00000+0  26429-3 0  9995
2 55835  87.9187 147.0110 0002214  89.6221 270.5165 13.19730821 24961
ONEWEB-0537             
1 56046U 23043A   23249.81553479  .00002602  00000+0  27377-3 0  9993
2 56046  86.8917  79.1014 0005569  84.8494 275.3368 14.89017462 24648
